{"type": "FeatureCollection", "features": [ {"type": "Feature", "properties": {"norad_id": 41836, "name": "HIMAWARI-9", "group": "weather", "lat": 0.027376377446882712, "lon": 28.505274255764398, "alt_km": 35786.38479582926, "timestamp": "2025-12-05T11:32:55.669420+00:00", "meta": {"OBJECT_NAME": "HIMAWARI-9", "OBJECT_ID": "2016-064A", "EPOCH": "2025-12-04T14:23:45.762144", "MEAN_MOTION": 1.00266965, "ECCENTRICITY": 0.0002499, "INCLINATION": 0.0187, "RA_OF_ASC_NODE": 359.6866, "ARG_OF_PERICENTER": 305.2934, "MEAN_ANOMALY": 125.3693, "EPHEMERIS_TYPE": 0, "CLASSIFICATION_TYPE": "U", "NORAD_CAT_ID": 41836, "ELEMENT_SET_NO": 999, "REV_AT_EPOCH": 3325, "BSTAR": 0, "MEAN_MOTION_DOT": 0, "MEAN_MOTION_DDOT": 0}, "tle": {"line1": "1 41836U 16064A   25338.59983521  .00000000  00000+0  00000+0 0  9990", "line2": "2 41836   0.0187 359.6866 0002499 305.2934 125.3693  1.00266965 33250"}}, "geometry": {"type": "Point", "coordinates": [28.505274255764398, 0.027376377446882712]}}, {"type": "Feature", "properties": {"norad_id": 41866, "name": "GOES 16", "group": "weather", "lat": 0.043132549069682904, "lon": 143.04403659099273, "alt_km": 35792.48208191823, "timestamp": "2025-12-05T11:32:55.669432+00:00", "meta": {"OBJECT_NAME": "GOES 16", "OBJECT_ID": "2016-071A", "EPOCH": "2025-12-04T13:13:44.969088", "MEAN_MOTION": 1.00270953, "ECCENTRICITY": 0.0003485, "INCLINATION": 0.0622, "RA_OF_ASC_NODE": 105.2587, "ARG_OF_PERICENTER": 152.5137, "MEAN_ANOMALY": 269.6161, "EPHEMERIS_TYPE": 0, "CLASSIFICATION_TYPE": "U", "NORAD_CAT_ID": 41866, "ELEMENT_SET_NO": 999, "REV_AT_EPOCH": 3315, "BSTAR": 0, "MEAN_MOTION_DOT": -7.6e-07, "MEAN_MOTION_DDOT": 0}, "tle": {"line1": "1 41866U 16071A   25338.55121492 -.00000076  00000+0  00000+0 0  9992", "line2": "2 41866   0.0622 105.2587 0003485 152.5137 269.6161  1.00270953 33159"}}, "geometry": {"type": "Point", "coordinates": [143.04403659099273, 0.043132549069682904]}}, {"type": "Feature", "properties": {"norad_id": 41882, "name": "FENGYUN 4A", "group": "weather", "lat": -1.711464792920517, "lon": 11.571985263732584, "alt_km": 35802.598188321914, "timestamp": "2025-12-05T11:32:55.669449+00:00", "meta": {"OBJECT_NAME": "FENGYUN 4A", "OBJECT_ID": "2016-077A", "EPOCH": "2025-12-04T17:44:19.051296", "MEAN_MOTION": 1.0027747, "ECCENTRICITY": 0.0005054, "INCLINATION": 1.8275, "RA_OF_ASC_NODE": 82.4706, "ARG_OF_PERICENTER": 142.5495, "MEAN_ANOMALY": 238.6253, "EPHEMERIS_TYPE": 0, "CLASSIFICATION_TYPE": "U", "NORAD_CAT_ID": 41882, "ELEMENT_SET_NO": 999, "REV_AT_EPOCH": 3298, "BSTAR": 0, "MEAN_MOTION_DOT": -3.43e-06, "MEAN_MOTION_DDOT": 0}, "tle": {"line1": "1 41882U 16077A   25338.73910939 -.00000343  00000+0  00000+0 0  9995", "line2": "2 41882   1.8275  82.4706 0005054 142.5495 238.6253  1.00277470 32988"}}, "geometry": {"type": "Point", "coordinates": [11.571985263732584, -1.711464792920517]}}, {"type": "Feature", "properties": {"norad_id": 41884, "name": "CYGFM05", "group": "weather", "lat": 0.7561660841060175, "lon": -86.55301114372314, "alt_km": 420.8578408292851, "timestamp": "2025-12-05T11:32:55.669460+00:00", "meta": {"OBJECT_NAME": "CYGFM05", "OBJECT_ID": "2016-078A", "EPOCH": "2025-12-04T16:11:56.188032", "MEAN_MOTION": 15.47189275, "ECCENTRICITY": 0.0009404, "INCLINATION": 34.9586, "RA_OF_ASC_NODE": 99.7926, "ARG_OF_PERICENTER": 106.2136, "MEAN_ANOMALY": 253.9621, "EPHEMERIS_TYPE": 0, "CLASSIFICATION_TYPE": "U", "NORAD_CAT_ID": 41884, "ELEMENT_SET_NO": 999, "REV_AT_EPOCH": 49851, "BSTAR": 0.00067027, "MEAN_MOTION_DOT": 0.00035272, "MEAN_MOTION_DDOT": 0}, "tle": {"line1": "1 41884U 16078A   25338.67495588  .00035272  00000+0  67027-3 0  9993", "line2": "2 41884  34.9586  99.7926 0009404 106.2136 253.9621 15.47189275498514"}}, "geometry": {"type": "Point", "coordinates": [-86.55301114372314, 0.7561660841060175]}}, {"type": "Feature", "properties": {"norad_id": 41885, "name": "CYGFM04", "group": "weather", "lat": -7.409015974332152, "lon": 58.77792040059355, "alt_km": 422.00796969139355, "timestamp": "2025-12-05T11:32:55.669471+00:00", "meta": {"OBJECT_NAME": "CYGFM04", "OBJECT_ID": "2016-078B", "EPOCH": "2025-12-04T15:30:30.236256", "MEAN_MOTION": 15.49858101, "ECCENTRICITY": 0.0008484, "INCLINATION": 34.9351, "RA_OF_ASC_NODE": 74.9891, "ARG_OF_PERICENTER": 135.8946, "MEAN_ANOMALY": 224.2453, "EPHEMERIS_TYPE": 0, "CLASSIFICATION_TYPE": "U", "NORAD_CAT_ID": 41885, "ELEMENT_SET_NO": 999, "REV_AT_EPOCH": 49868, "BSTAR": 0.00073562, "MEAN_MOTION_DOT": 0.00042553, "MEAN_MOTION_DDOT": 0}, "tle": {"line1": "1 41885U 16078B   25338.64618329  .00042553  00000+0  73562-3 0  9992", "line2": "2 41885  34.9351  74.9891 0008484 135.8946 224.2453 15.49858101498680"}}, "geometry": {"type": "Point", "coordinates": [58.77792040059355, -7.409015974332152]}}, {"type": "Feature", "properties": {"norad_id": 41886, "name": "CYGFM02", "group": "weather", "lat": -19.52049259681879, "lon": 37.420793285308335, "alt_km": 420.9287506951405, "timestamp": "2025-12-05T11:32:55.669482+00:00", "meta": {"OBJECT_NAME": "CYGFM02", "OBJECT_ID": "2016-078C", "EPOCH": "2025-12-04T15:37:24.347136", "MEAN_MOTION": 15.51203818, "ECCENTRICITY": 0.0010208, "INCLINATION": 34.9438, "RA_OF_ASC_NODE": 73.3872, "ARG_OF_PERICENTER": 135.3392, "MEAN_ANOMALY": 224.8154, "EPHEMERIS_TYPE": 0, "CLASSIFICATION_TYPE": "U", "NORAD_CAT_ID": 41886, "ELEMENT_SET_NO": 999, "REV_AT_EPOCH": 49881, "BSTAR": 0.00072443, "MEAN_MOTION_DOT": 0.00044003, "MEAN_MOTION_DDOT": 0}, "tle": {"line1": "1 41886U 16078C   25338.65097624  .00044003  00000+0  72443-3 0  9992", "line2": "2 41886  34.9438  73.3872 0010208 135.3392 224.8154 15.51203818498817"}}, "geometry": {"type": "Point", "coordinates": [37.420793285308335, -19.52049259681879]}}, {"type": "Feature", "properties": {"norad_id": 41887, "name": "CYGFM01", "group": "weather", "lat": -15.498589082369232, "lon": -59.66920233544994, "alt_km": 425.0659479913529, "timestamp": "2025-12-05T11:32:55.669492+00:00", "meta": {"OBJECT_NAME": "CYGFM01", "OBJECT_ID": "2016-078D", "EPOCH": "2025-12-04T16:04:50.730240", "MEAN_MOTION": 15.47756849, "ECCENTRICITY": 0.0008986, "INCLINATION": 34.9415, "RA_OF_ASC_NODE": 102.2305, "ARG_OF_PERICENTER": 97.7276, "MEAN_ANOMALY": 262.4466, "EPHEMERIS_TYPE": 0, "CLASSIFICATION_TYPE": "U", "NORAD_CAT_ID": 41887, "ELEMENT_SET_NO": 999, "REV_AT_EPOCH": 49845, "BSTAR": 0.00071426, "MEAN_MOTION_DOT": 0.00038352, "MEAN_MOTION_DDOT": 0}, "tle": {"line1": "1 41887U 16078D   25338.67003160  .00038352  00000+0  71426-3 0  9997", "line2": "2 41887  34.9415 102.2305 0008986  97.7276 262.4466 15.47756849498454"}}, "geometry": {"type": "Point", "coordinates": [-59.66920233544994, -15.498589082369232]}}, {"type": "Feature", "properties": {"norad_id": 41888, "name": "CYGFM08", "group": "weather", "lat": -23.842686325371925, "lon": -60.730404480266245, "alt_km": 421.505985946279, "timestamp": "2025-12-05T11:32:55.669503+00:00", "meta": {"OBJECT_NAME": "CYGFM08", "OBJECT_ID": "2016-078E", "EPOCH": "2025-12-04T16:01:20.267616", "MEAN_MOTION": 15.48939528, "ECCENTRICITY": 0.0010708, "INCLINATION": 34.9457, "RA_OF_ASC_NODE": 85.3323, "ARG_OF_PERICENTER": 123.2398, "MEAN_ANOMALY": 236.9351, "EPHEMERIS_TYPE": 0, "CLASSIFICATION_TYPE": "U", "NORAD_CAT_ID": 41888, "ELEMENT_SET_NO": 999, "REV_AT_EPOCH": 49868, "BSTAR": 0.00072561, "MEAN_MOTION_DOT": 0.00040654, "MEAN_MOTION_DDOT": 0}, "tle": {"line1": "1 41888U 16078E   25338.66759569  .00040654  00000+0  72561-3 0  9997", "line2": "2 41888  34.9457  85.3323 0010708 123.2398 236.9351 15.48939528498689"}}, "geometry": {"type": "Point", "coordinates": [-60.730404480266245, -23.842686325371925]}}, {"type": "Feature", "properties": {"norad_id": 41890, "name": "CYGFM07", "group": "weather", "lat": -9.891644339044337, "lon": -96.51256427241115, "alt_km": 413.9370603987354, "timestamp": "2025-12-05T11:32:55.669523+00:00", "meta": {"OBJECT_NAME": "CYGFM07", "OBJECT_ID": "2016-078G", "EPOCH": "2025-12-04T16:08:49.615008", "MEAN_MOTION": 15.49510261, "ECCENTRICITY": 0.0009042, "INCLINATION": 34.9474, "RA_OF_ASC_NODE": 74.324, "ARG_OF_PERICENTER": 141.8553, "MEAN_ANOMALY": 218.281, "EPHEMERIS_TYPE": 0, "CLASSIFICATION_TYPE": "U", "NORAD_CAT_ID": 41890, "ELEMENT_SET_NO": 999, "REV_AT_EPOCH": 49870, "BSTAR": 0.00068841, "MEAN_MOTION_DOT": 0.00039321, "MEAN_MOTION_DDOT": 0}, "tle": {"line1": "1 41890U 16078G   25338.67279647  .00039321  00000+0  68841-3 0  9990", "line2": "2 41890  34.9474  74.3240 0009042 141.8553 218.2810 15.49510261498701"}}, "geometry": {"type": "Point", "coordinates": [-96.51256427241115, -9.891644339044337]}}, {"type": "Feature", "properties": {"norad_id": 41891, "name": "CYGFM03", "group": "weather", "lat": 18.90725870201436, "lon": 100.31809980162839, "alt_km": 415.4977052892891, "timestamp": "2025-12-05T11:32:55.669534+00:00", "meta": {"OBJECT_NAME": "CYGFM03", "OBJECT_ID": "2016-078H", "EPOCH": "2025-12-04T15:17:54.461760", "MEAN_MOTION": 15.4941283, "ECCENTRICITY": 0.0008335, "INCLINATION": 34.9433, "RA_OF_ASC_NODE": 76.4691, "ARG_OF_PERICENTER": 128.1417, "MEAN_ANOMALY": 232.0057, "EPHEMERIS_TYPE": 0, "CLASSIFICATION_TYPE": "U", "NORAD_CAT_ID": 41891, "ELEMENT_SET_NO": 999, "REV_AT_EPOCH": 49867, "BSTAR": 0.00071886, "MEAN_MOTION_DOT": 0.0004092, "MEAN_MOTION_DDOT": 0}, "tle": {"line1": "1 41891U 16078H   25338.63743590  .00040920  00000+0  71886-3 0  9990", "line2": "2 41891  34.9433  76.4691 0008335 128.1417 232.0057 15.49412830498677"}}, "geometry": {"type": "Point", "coordinates": [100.31809980162839, 18.90725870201436]}}]}